[{"OBJECT_NAME":"STARLINK-36378","OBJECT_ID":"2026-040L","EPOCH":"2026-03-27T06:28:31.989216","MEAN_MOTION":15.75221045,"ECCENTRICITY":0.00018874,"INCLINATION":97.2859,"RA_OF_ASC_NODE":35.5986,"ARG_OF_PERICENTER":144.9611,"MEAN_ANOMALY":215.1779,"EPHEMERIS_TYPE":0,"CLASSIFICATION_TYPE":"U","NORAD_CAT_ID":68025,"ELEMENT_SET_NO":999,"REV_AT_EPOCH":412,"BSTAR":0.0010114722,"MEAN_MOTION_DOT":0.00153693,"MEAN_MOTION_DDOT":0},{"OBJECT_NAME":"STARLINK-36884","OBJECT_ID":"2026-040M","EPOCH":"2026-03-27T06:29:03.218496","MEAN_MOTION":15.75256137,"ECCENTRICITY":0.00022722,"INCLINATION":97.286,"RA_OF_ASC_NODE":35.5966,"ARG_OF_PERICENTER":76.3135,"MEAN_ANOMALY":283.8383,"EPHEMERIS_TYPE":0,"CLASSIFICATION_TYPE":"U","NORAD_CAT_ID":68026,"ELEMENT_SET_NO":999,"REV_AT_EPOCH":412,"BSTAR":0.0017901264,"MEAN_MOTION_DOT":0.00276502,"MEAN_MOTION_DDOT":0},{"OBJECT_NAME":"STARLINK-36940","OBJECT_ID":"2026-040N","EPOCH":"2026-03-26T08:55:38.683200","MEAN_MOTION":15.75174321,"ECCENTRICITY":0.00035256,"INCLINATION":97.2855,"RA_OF_ASC_NODE":34.6819,"ARG_OF_PERICENTER":99.462,"MEAN_ANOMALY":260.7044,"EPHEMERIS_TYPE":0,"CLASSIFICATION_TYPE":"U","NORAD_CAT_ID":68027,"ELEMENT_SET_NO":999,"REV_AT_EPOCH":398,"BSTAR":0.0015624344,"MEAN_MOTION_DOT":0.00239446,"MEAN_MOTION_DDOT":0},{"OBJECT_NAME":"STARLINK-36253","OBJECT_ID":"2026-040P","EPOCH":"2026-03-27T06:00:02.999808","MEAN_MOTION":15.40134725,"ECCENTRICITY":0.00022457,"INCLINATION":97.2848,"RA_OF_ASC_NODE":35.1106,"ARG_OF_PERICENTER":88.8945,"MEAN_ANOMALY":131.8713,"EPHEMERIS_TYPE":0,"CLASSIFICATION_TYPE":"U","NORAD_CAT_ID":68028,"ELEMENT_SET_NO":999,"REV_AT_EPOCH":535,"BSTAR":-0.049404738,"MEAN_MOTION_DOT":-0.01785485,"MEAN_MOTION_DDOT":0},{"OBJECT_NAME":"STARLINK-36944","OBJECT_ID":"2026-040Q","EPOCH":"2026-03-27T06:27:30.863808","MEAN_MOTION":15.75259311,"ECCENTRICITY":0.00017283,"INCLINATION":97.2866,"RA_OF_ASC_NODE":35.5963,"ARG_OF_PERICENTER":148.62,"MEAN_ANOMALY":211.5169,"EPHEMERIS_TYPE":0,"CLASSIFICATION_TYPE":"U","NORAD_CAT_ID":68029,"ELEMENT_SET_NO":999,"REV_AT_EPOCH":412,"BSTAR":0.0014477589,"MEAN_MOTION_DOT":0.00222192,"MEAN_MOTION_DDOT":0},{"OBJECT_NAME":"STARLINK-36942","OBJECT_ID":"2026-040R","EPOCH":"2026-03-27T01:52:03.266112","MEAN_MOTION":15.75342043,"ECCENTRICITY":0.0001784,"INCLINATION":97.2849,"RA_OF_ASC_NODE":35.4003,"ARG_OF_PERICENTER":325.3781,"MEAN_ANOMALY":34.7368,"EPHEMERIS_TYPE":0,"CLASSIFICATION_TYPE":"U","NORAD_CAT_ID":68030,"ELEMENT_SET_NO":999,"REV_AT_EPOCH":409,"BSTAR":0.0025360899,"MEAN_MOTION_DOT":0.00398978,"MEAN_MOTION_DDOT":0},{"OBJECT_NAME":"STARLINK-36913","OBJECT_ID":"2026-040S","EPOCH":"2026-03-26T07:33:33.884064","MEAN_MOTION":15.74064466,"ECCENTRICITY":0.00025716,"INCLINATION":97.2867,"RA_OF_ASC_NODE":34.6029,"ARG_OF_PERICENTER":313.5891,"MEAN_ANOMALY":46.516,"EPHEMERIS_TYPE":0,"CLASSIFICATION_TYPE":"U","NORAD_CAT_ID":68031,"ELEMENT_SET_NO":999,"REV_AT_EPOCH":397,"BSTAR":0.0018656997,"MEAN_MOTION_DOT":0.00273711,"MEAN_MOTION_DDOT":0},{"OBJECT_NAME":"STARLINK-36935","OBJECT_ID":"2026-040T","EPOCH":"2026-03-26T08:57:40.698144","MEAN_MOTION":15.75169797,"ECCENTRICITY":0.00031804,"INCLINATION":97.2867,"RA_OF_ASC_NODE":34.6763,"ARG_OF_PERICENTER":85.3265,"MEAN_ANOMALY":274.8364,"EPHEMERIS_TYPE":0,"CLASSIFICATION_TYPE":"U","NORAD_CAT_ID":68032,"ELEMENT_SET_NO":999,"REV_AT_EPOCH":398,"BSTAR":0.0018155117,"MEAN_MOTION_DOT":0.002795,"MEAN_MOTION_DDOT":0},{"OBJECT_NAME":"STARLINK-36947","OBJECT_ID":"2026-040U","EPOCH":"2026-03-26T09:03:46.543392","MEAN_MOTION":15.75170926,"ECCENTRICITY":0.00029223,"INCLINATION":97.2851,"RA_OF_ASC_NODE":34.6699,"ARG_OF_PERICENTER":83.7168,"MEAN_ANOMALY":276.443,"EPHEMERIS_TYPE":0,"CLASSIFICATION_TYPE":"U","NORAD_CAT_ID":68033,"ELEMENT_SET_NO":999,"REV_AT_EPOCH":398,"BSTAR":0.0020145305,"MEAN_MOTION_DOT":0.00311327,"MEAN_MOTION_DDOT":0},{"OBJECT_NAME":"STARLINK-36939","OBJECT_ID":"2026-040V","EPOCH":"2026-03-26T07:28:13.221696","MEAN_MOTION":15.75210433,"ECCENTRICITY":0.0001575,"INCLINATION":97.285,"RA_OF_ASC_NODE":34.6089,"ARG_OF_PERICENTER":95.3724,"MEAN_ANOMALY":264.7721,"EPHEMERIS_TYPE":0,"CLASSIFICATION_TYPE":"U","NORAD_CAT_ID":68034,"ELEMENT_SET_NO":999,"REV_AT_EPOCH":397,"BSTAR":0.0023433,"MEAN_MOTION_DOT":0.00365085,"MEAN_MOTION_DDOT":0},{"OBJECT_NAME":"STARLINK-36943","OBJECT_ID":"2026-040W","EPOCH":"2026-03-26T18:07:02.952192","MEAN_MOTION":15.75319684,"ECCENTRICITY":0.00017246,"INCLINATION":97.2852,"RA_OF_ASC_NODE":35.0794,"ARG_OF_PERICENTER":106.4562,"MEAN_ANOMALY":253.6892,"EPHEMERIS_TYPE":0,"CLASSIFICATION_TYPE":"U","NORAD_CAT_ID":68035,"ELEMENT_SET_NO":999,"REV_AT_EPOCH":517,"BSTAR":0.0019761197,"MEAN_MOTION_DOT":0.00307192,"MEAN_MOTION_DDOT":0},{"OBJECT_NAME":"STARLINK-36906","OBJECT_ID":"2026-040X","EPOCH":"2026-03-26T10:32:29.000256","MEAN_MOTION":15.75164284,"ECCENTRICITY":0.00047486,"INCLINATION":97.2863,"RA_OF_ASC_NODE":34.7414,"ARG_OF_PERICENTER":276.4169,"MEAN_ANOMALY":83.6555,"EPHEMERIS_TYPE":0,"CLASSIFICATION_TYPE":"U","NORAD_CAT_ID":68036,"ELEMENT_SET_NO":999,"REV_AT_EPOCH":399,"BSTAR":0.0026326726,"MEAN_MOTION_DOT":0.00411713,"MEAN_MOTION_DDOT":0},{"OBJECT_NAME":"STARLINK-36388","OBJECT_ID":"2026-040Y","EPOCH":"2026-03-26T08:58:41.452896","MEAN_MOTION":15.75185407,"ECCENTRICITY":0.00028942,"INCLINATION":97.2863,"RA_OF_ASC_NODE":34.6768,"ARG_OF_PERICENTER":86.1045,"MEAN_ANOMALY":274.0551,"EPHEMERIS_TYPE":0,"CLASSIFICATION_TYPE":"U","NORAD_CAT_ID":68037,"ELEMENT_SET_NO":999,"REV_AT_EPOCH":398,"BSTAR":0.0011914754,"MEAN_MOTION_DOT":0.00181396,"MEAN_MOTION_DDOT":0},{"OBJECT_NAME":"STARLINK-36895","OBJECT_ID":"2026-040Z","EPOCH":"2026-03-27T06:00:02.999808","MEAN_MOTION":15.75101312,"ECCENTRICITY":0.00016658,"INCLINATION":97.2859,"RA_OF_ASC_NODE":35.588,"ARG_OF_PERICENTER":98.0245,"MEAN_ANOMALY":174.0245,"EPHEMERIS_TYPE":0,"CLASSIFICATION_TYPE":"U","NORAD_CAT_ID":68038,"ELEMENT_SET_NO":999,"REV_AT_EPOCH":525,"BSTAR":0.0010261731,"MEAN_MOTION_DOT":0.00155148,"MEAN_MOTION_DDOT":0},{"OBJECT_NAME":"STARLINK-36373","OBJECT_ID":"2026-040AA","EPOCH":"2026-03-27T06:00:02.999808","MEAN_MOTION":15.69381573,"ECCENTRICITY":0.00017087,"INCLINATION":97.2851,"RA_OF_ASC_NODE":35.5821,"ARG_OF_PERICENTER":106.6554,"MEAN_ANOMALY":147.1535,"EPHEMERIS_TYPE":0,"CLASSIFICATION_TYPE":"U","NORAD_CAT_ID":68039,"ELEMENT_SET_NO":999,"REV_AT_EPOCH":520,"BSTAR":-0.018058355,"MEAN_MOTION_DOT":-0.01840414,"MEAN_MOTION_DDOT":0},{"OBJECT_NAME":"STARLINK-36711","OBJECT_ID":"2026-041A","EPOCH":"2026-03-26T23:07:38.972928","MEAN_MOTION":15.75323269,"ECCENTRICITY":0.0001009,"INCLINATION":53.1587,"RA_OF_ASC_NODE":336.0793,"ARG_OF_PERICENTER":24.7614,"MEAN_ANOMALY":335.3455,"EPHEMERIS_TYPE":0,"CLASSIFICATION_TYPE":"U","NORAD_CAT_ID":68040,"ELEMENT_SET_NO":999,"REV_AT_EPOCH":394,"BSTAR":0.001767,"MEAN_MOTION_DOT":0.00280425,"MEAN_MOTION_DDOT":0}]
