STARLINK-36378          
1 68025U 26040L   26086.26981469  .00153693  00000+0  10115-2 0  9996
2 68025  97.2859  35.5986 0001887 144.9611 215.1779 15.75221045  4120
STARLINK-36884          
1 68026U 26040M   26086.27017614  .00276502  00000+0  17901-2 0  9995
2 68026  97.2860  35.5966 0002272  76.3135 283.8383 15.75256137  4122
STARLINK-36940          
1 68027U 26040N   26085.37197550  .00239446  00000+0  15624-2 0  9990
2 68027  97.2855  34.6819 0003525  99.4620 260.7044 15.75174321  3986
STARLINK-36253          
1 68028U 26040P   26086.25003472 -.01785485  00000+0 -49405-1 0  9993
2 68028  97.2848  35.1106 0002245  88.8945 131.8713 15.40134725  5354
STARLINK-36944          
1 68029U 26040Q   26086.26910722  .00222192  00000+0  14478-2 0  9991
2 68029  97.2866  35.5963 0001728 148.6200 211.5169 15.75259311  4126
STARLINK-36942          
1 68030U 26040R   26086.07781558  .00398978  00000+0  25361-2 0  9994
2 68030  97.2849  35.4003 0001784 325.3781  34.7368 15.75342043  4090
STARLINK-36913          
1 68031U 26040S   26085.31497551  .00273711  00000+0  18657-2 0  9995
2 68031  97.2867  34.6029 0002571 313.5891  46.5160 15.74064466  3972
STARLINK-36935          
1 68032U 26040T   26085.37338771  .00279500  00000+0  18155-2 0  9995
2 68032  97.2867  34.6763 0003180  85.3265 274.8364 15.75169797  3981
STARLINK-36947          
1 68033U 26040U   26085.37762203  .00311327  00000+0  20145-2 0  9993
2 68033  97.2851  34.6699 0002922  83.7168 276.4430 15.75170926  3988
STARLINK-36939          
1 68034U 26040V   26085.31126414  .00365085  00000+0  23433-2 0  9999
2 68034  97.2850  34.6089 0001575  95.3724 264.7721 15.75210433  3971
STARLINK-36943          
1 68035U 26040W   26085.75489528  .00307192  00000+0  19761-2 0  9990
2 68035  97.2852  35.0794 0001724 106.4562 253.6892 15.75319684  5170
STARLINK-36906          
1 68036U 26040X   26085.43922454  .00411713  00000+0  26327-2 0  9997
2 68036  97.2863  34.7414 0004748 276.4169  83.6555 15.75164284  3997
STARLINK-36388          
1 68037U 26040Y   26085.37409089  .00181396  00000+0  11915-2 0  9993
2 68037  97.2863  34.6768 0002894  86.1045 274.0551 15.75185407  3989
STARLINK-36895          
1 68038U 26040Z   26086.25003472  .00155148  00000+0  10262-2 0  9998
2 68038  97.2859  35.5880 0001665  98.0245 174.0245 15.75101312  5253
STARLINK-36373          
1 68039U 26040AA  26086.25003472 -.01840414  00000+0 -18058-1 0  9999
2 68039  97.2851  35.5821 0001708 106.6554 147.1535 15.69381573  5208
STARLINK-36711          
1 68040U 26041A   26085.96364552  .00280425  00000+0  17670-2 0  9995
2 68040  53.1587 336.0793 0001009  24.7614 335.3455 15.75323269  3941
